start=new Date('2022-02-22T00:00:00.000Z').valueOf();
sats=[{"RA_OF_ASC_NODE":"311.2236","MEAN_MOTION_DOT":"0.00001222","MEAN_ELEMENT_THEORY":"SGP4","INCLINATION":"53.0535","FILE":"3312023","COUNTRY_CODE":"US","CENTER_NAME":"EARTH","TLE_LINE2":"2 48121  53.0535 311.2236 0001595  78.7266 281.3902 15.06393446 49967","RCS_SIZE":"LARGE","EPOCH":"2022-02-21T21:26:19.403232","PERIOD":"95.593","MEAN_MOTION":"15.06393446","ECCENTRICITY":"0.00015950","MEAN_MOTION_DDOT":"0.0000000000000","PERIAPSIS":"546.129","OBJECT_TYPE":"PAYLOAD","REF_FRAME":"TEME","ARG_OF_PERICENTER":"78.7266","SITE":"AFETR","TLE_LINE1":"1 48121U 21027AF  22052.89328013  .00001222  00000-0  10095-3 0  9998","DECAY_DATE":null,"NORAD_CAT_ID":"48121","CLASSIFICATION_TYPE":"U","BSTAR":"0.00010095000000","EPHEMERIS_TYPE":"0","APOAPSIS":"548.338","ELEMENT_SET_NO":"999","LAUNCH_DATE":"2021-04-07","REV_AT_EPOCH":"4996","OBJECT_NAME":"STARLINK-2462","SEMIMAJOR_AXIS":"6925.369","TIME_SYSTEM":"UTC","OBJECT_ID":"2021-027AF","MEAN_ANOMALY":"281.3902","GP_ID":"196573039"},{"MEAN_MOTION_DOT":"-0.00003273","RA_OF_ASC_NODE":"306.2125","FILE":"3312023","INCLINATION":"53.0558","MEAN_ELEMENT_THEORY":"SGP4","TLE_LINE2":"2 48122  53.0558 306.2125 0001645  60.2367 299.8786 15.06386985 50043","CENTER_NAME":"EARTH","COUNTRY_CODE":"US","RCS_SIZE":"LARGE","MEAN_MOTION":"15.06386985","EPOCH":"2022-02-21T21:28:16.780224","PERIOD":"95.593","MEAN_MOTION_DDOT":"0.0000000000000","ECCENTRICITY":"0.00016450","OBJECT_TYPE":"PAYLOAD","REF_FRAME":"TEME","PERIAPSIS":"546.114","SITE":"AFETR","TLE_LINE1":"1 48122U 21027AG  22052.89463866 -.00003273  00000-0 -20100-3 0  9993","ARG_OF_PERICENTER":"60.2367","APOAPSIS":"548.393","EPHEMERIS_TYPE":"0","BSTAR":"-0.00020100000000","CLASSIFICATION_TYPE":"U","NORAD_CAT_ID":"48122","DECAY_DATE":null,"REV_AT_EPOCH":"5004","OBJECT_NAME":"STARLINK-2463","LAUNCH_DATE":"2021-04-07","ELEMENT_SET_NO":"999","MEAN_ANOMALY":"299.8786","OBJECT_ID":"2021-027AG","TIME_SYSTEM":"UTC","SEMIMAJOR_AXIS":"6925.388","GP_ID":"196573294"},{"LAUNCH_DATE":"2021-04-07","OBJECT_NAME":"STARLINK-2464","REV_AT_EPOCH":"5010","ELEMENT_SET_NO":"999","MEAN_ANOMALY":"279.9049","SEMIMAJOR_AXIS":"6925.329","OBJECT_ID":"2021-027AH","TIME_SYSTEM":"UTC","GP_ID":"196572041","MEAN_MOTION_DDOT":"0.0000000000000","ECCENTRICITY":"0.00014110","OBJECT_TYPE":"PAYLOAD","REF_FRAME":"TEME","PERIAPSIS":"546.217","TLE_LINE1":"1 48123U 21027AH  22052.83521482  .00002245  00000-0  16950-3 0  9991","SITE":"AFETR","ARG_OF_PERICENTER":"80.2099","APOAPSIS":"548.171","EPHEMERIS_TYPE":"0","NORAD_CAT_ID":"48123","DECAY_DATE":null,"BSTAR":"0.00016950000000","CLASSIFICATION_TYPE":"U","RCS_SIZE":"LARGE","EPOCH":"2022-02-21T20:02:42.560448","PERIOD":"95.592","MEAN_MOTION":"15.06406455","RA_OF_ASC_NODE":"301.4706","MEAN_MOTION_DOT":"0.00002245","INCLINATION":"53.0550","FILE":"3312023","MEAN_ELEMENT_THEORY":"SGP4","TLE_LINE2":"2 48123  53.0550 301.4706 0001411  80.2099 279.9049 15.06406455 50106","CENTER_NAME":"EARTH","COUNTRY_CODE":"US"},{"RCS_SIZE":"LARGE","MEAN_MOTION":"15.06383600","EPOCH":"2022-02-21T21:36:56.877984","PERIOD":"95.593","MEAN_MOTION_DOT":"-0.00000651","RA_OF_ASC_NODE":"311.1932","FILE":"3312023","INCLINATION":"53.0539","MEAN_ELEMENT_THEORY":"SGP4","TLE_LINE2":"2 48124  53.0539 311.1932 0001104  62.3871 297.7229 15.06383600 49967","COUNTRY_CODE":"US","CENTER_NAME":"EARTH","REV_AT_EPOCH":"4996","OBJECT_NAME":"STARLINK-2465","LAUNCH_DATE":"2021-04-07","ELEMENT_SET_NO":"999","MEAN_ANOMALY":"297.7229","OBJECT_ID":"2021-027AJ","TIME_SYSTEM":"UTC","SEMIMAJOR_AXIS":"6925.399","GP_ID":"196572290","MEAN_MOTION_DDOT":"0.0000000000000","ECCENTRICITY":"0.00011040","OBJECT_TYPE":"PAYLOAD","REF_FRAME":"TEME","PERIAPSIS":"546.499","SITE":"AFETR","TLE_LINE1":"1 48124U 21027AJ  22052.90065831 -.00000651  00000-0 -24824-4 0  9992","ARG_OF_PERICENTER":"62.3871","EPHEMERIS_TYPE":"0","APOAPSIS":"548.028","CLASSIFICATION_TYPE":"U","BSTAR":"-0.00002482400000","DECAY_DATE":null,"NORAD_CAT_ID":"48124"},{"PERIOD":"95.593","EPOCH":"2022-02-21T21:23:38.299200","MEAN_MOTION":"15.06390760","RCS_SIZE":"LARGE","TLE_LINE2":"2 48125  53.0548 321.2316 0001541  68.5029 291.6124 15.06390760 49832","COUNTRY_CODE":"US","CENTER_NAME":"EARTH","RA_OF_ASC_NODE":"321.2316","MEAN_MOTION_DOT":"0.00000081","INCLINATION":"53.0548","FILE":"3312023","MEAN_ELEMENT_THEORY":"SGP4","GP_ID":"196572539","LAUNCH_DATE":"2021-04-07","OBJECT_NAME":"STARLINK-2466","REV_AT_EPOCH":"4983","ELEMENT_SET_NO":"999","MEAN_ANOMALY":"291.6124","SEMIMAJOR_AXIS":"6925.377","TIME_SYSTEM":"UTC","OBJECT_ID":"2021-027AK","SITE":"AFETR","TLE_LINE1":"1 48125U 21027AK  22052.89141550  .00000081  00000-0  24342-4 0  9994","ARG_OF_PERICENTER":"68.5029","APOAPSIS":"548.309","EPHEMERIS_TYPE":"0","DECAY_DATE":null,"NORAD_CAT_ID":"48125","CLASSIFICATION_TYPE":"U","BSTAR":"0.00002434200000","MEAN_MOTION_DDOT":"0.0000000000000","ECCENTRICITY":"0.00015410","OBJECT_TYPE":"PAYLOAD","REF_FRAME":"TEME","PERIAPSIS":"546.175"},{"RCS_SIZE":"LARGE","EPOCH":"2022-02-21T22:26:02.482944","PERIOD":"95.593","MEAN_MOTION":"15.06389228","RA_OF_ASC_NODE":"301.0190","MEAN_MOTION_DOT":"-0.00000275","INCLINATION":"53.0553","FILE":"3312023","MEAN_ELEMENT_THEORY":"SGP4","TLE_LINE2":"2 48126  53.0553 301.0190 0001191  81.1117 279.0007 15.06389228 50126","CENTER_NAME":"EARTH","COUNTRY_CODE":"US","LAUNCH_DATE":"2021-04-07","OBJECT_NAME":"STARLINK-2467","REV_AT_EPOCH":"5012","ELEMENT_SET_NO":"999","MEAN_ANOMALY":"279.0007","SEMIMAJOR_AXIS":"6925.382","OBJECT_ID":"2021-027AL","TIME_SYSTEM":"UTC","GP_ID":"196572794","MEAN_MOTION_DDOT":"0.0000000000000","ECCENTRICITY":"0.00011910","REF_FRAME":"TEME","OBJECT_TYPE":"PAYLOAD","PERIAPSIS":"546.422","TLE_LINE1":"1 48126U 21027AL  22052.93475096 -.00000275  00000-0  45536-6 0  9991","SITE":"AFETR","ARG_OF_PERICENTER":"81.1117","EPHEMERIS_TYPE":"0","APOAPSIS":"548.071","DECAY_DATE":null,"NORAD_CAT_ID":"48126","BSTAR":"0.00000045536000","CLASSIFICATION_TYPE":"U"},{"RCS_SIZE":"LARGE","MEAN_MOTION":"15.06386784","EPOCH":"2022-02-21T22:12:45.982944","PERIOD":"95.593","MEAN_ELEMENT_THEORY":"SGP4","FILE":"3312023","INCLINATION":"53.0541","MEAN_MOTION_DOT":"-0.00000641","RA_OF_ASC_NODE":"321.0801","CENTER_NAME":"EARTH","COUNTRY_CODE":"US","TLE_LINE2":"2 48127  53.0541 321.0801 0001465  69.3317 290.7829 15.06386784 49831","TIME_SYSTEM":"UTC","OBJECT_ID":"2021-027AM","SEMIMAJOR_AXIS":"6925.389","MEAN_ANOMALY":"290.7829","ELEMENT_SET_NO":"999","REV_AT_EPOCH":"4983","OBJECT_NAME":"STARLINK-2468","LAUNCH_DATE":"2021-04-07","GP_ID":"196571541","PERIAPSIS":"546.239","OBJECT_TYPE":"PAYLOAD","REF_FRAME":"TEME","ECCENTRICITY":"0.00014650","MEAN_MOTION_DDOT":"0.0000000000000","BSTAR":"-0.00002416500000","CLASSIFICATION_TYPE":"U","DECAY_DATE":null,"NORAD_CAT_ID":"48127","APOAPSIS":"548.269","EPHEMERIS_TYPE":"0","ARG_OF_PERICENTER":"69.3317","SITE":"AFETR","TLE_LINE1":"1 48127U 21027AM  22052.92553221 -.00000641  00000-0 -24165-4 0  9999"},{"EPOCH":"2022-02-21T19:57:23.582880","PERIOD":"95.593","MEAN_MOTION":"15.06391073","RCS_SIZE":"LARGE","TLE_LINE2":"2 48128  53.0560 251.4919 0001209 102.0642 258.0483 15.06391073 50798","COUNTRY_CODE":"US","CENTER_NAME":"EARTH","INCLINATION":"53.0560","FILE":"3312023","MEAN_ELEMENT_THEORY":"SGP4","RA_OF_ASC_NODE":"251.4919","MEAN_MOTION_DOT":"-0.00000204","GP_ID":"196571790","MEAN_ANOMALY":"258.0483","SEMIMAJOR_AXIS":"6925.376","OBJECT_ID":"2021-027AN","TIME_SYSTEM":"UTC","LAUNCH_DATE":"2021-04-07","OBJECT_NAME":"STARLINK-2469","REV_AT_EPOCH":"5079","ELEMENT_SET_NO":"999","APOAPSIS":"548.078","EPHEMERIS_TYPE":"0","DECAY_DATE":null,"NORAD_CAT_ID":"48128","BSTAR":"0.00000521040000","CLASSIFICATION_TYPE":"U","TLE_LINE1":"1 48128U 21027AN  22052.83152295 -.00000204  00000-0  52104-5 0  9995","SITE":"AFETR","ARG_OF_PERICENTER":"102.0642","OBJECT_TYPE":"PAYLOAD","REF_FRAME":"TEME","PERIAPSIS":"546.404","MEAN_MOTION_DDOT":"0.0000000000000","ECCENTRICITY":"0.00012090"},{"RCS_SIZE":"LARGE","EPOCH":"2022-02-21T22:02:09.470688","PERIOD":"95.593","MEAN_MOTION":"15.06385244","INCLINATION":"53.0552","FILE":"3312023","MEAN_ELEMENT_THEORY":"SGP4","RA_OF_ASC_NODE":"321.1121","MEAN_MOTION_DOT":"-0.00000508","TLE_LINE2":"2 48129  53.0552 321.1121 0001621  72.0505 288.0661 15.06385244 49839","CENTER_NAME":"EARTH","COUNTRY_CODE":"US","MEAN_ANOMALY":"288.0661","SEMIMAJOR_AXIS":"6925.394","OBJECT_ID":"2021-027AP","TIME_SYSTEM":"UTC","LAUNCH_DATE":"2021-04-07","REV_AT_EPOCH":"4983","OBJECT_NAME":"STARLINK-2471","ELEMENT_SET_NO":"999","GP_ID":"196573040","OBJECT_TYPE":"PAYLOAD","REF_FRAME":"TEME","PERIAPSIS":"546.136","MEAN_MOTION_DDOT":"0.0000000000000","ECCENTRICITY":"0.00016210","APOAPSIS":"548.381","EPHEMERIS_TYPE":"0","DECAY_DATE":null,"NORAD_CAT_ID":"48129","CLASSIFICATION_TYPE":"U","BSTAR":"-0.00001523600000","TLE_LINE1":"1 48129U 21027AP  22052.91816517 -.00000508  00000-0 -15236-4 0  9991","SITE":"AFETR","ARG_OF_PERICENTER":"72.0505"},{"PERIOD":"95.591","EPOCH":"2022-02-21T21:46:52.479840","MEAN_MOTION":"15.06419263","RCS_SIZE":"LARGE","COUNTRY_CODE":"US","CENTER_NAME":"EARTH","TLE_LINE2":"2 48130  53.0545 326.1545 0001700  67.4666 292.6503 15.06419263 49769","MEAN_ELEMENT_THEORY":"SGP4","INCLINATION":"53.0545","FILE":"3312023","RA_OF_ASC_NODE":"326.1545","MEAN_MOTION_DOT":"0.00014955","GP_ID":"196573295","SEMIMAJOR_AXIS":"6925.290","OBJECT_ID":"2021-027AQ","TIME_SYSTEM":"UTC","MEAN_ANOMALY":"292.6503","ELEMENT_SET_NO":"999","LAUNCH_DATE":"2021-04-07","OBJECT_NAME":"STARLINK-2472","REV_AT_EPOCH":"4976","NORAD_CAT_ID":"48130","DECAY_DATE":null,"BSTAR":"0.00102020000000","CLASSIFICATION_TYPE":"U","EPHEMERIS_TYPE":"0","APOAPSIS":"548.332","ARG_OF_PERICENTER":"67.4666","TLE_LINE1":"1 48130U 21027AQ  22052.90755185  .00014955  00000-0  10202-2 0  9990","SITE":"AFETR","PERIAPSIS":"545.977","REF_FRAME":"TEME","OBJECT_TYPE":"PAYLOAD","ECCENTRICITY":"0.00017000","MEAN_MOTION_DDOT":"0.0000000000000"}];
